INSAT-3D                
1 39216U 13038B   26065.25041532 -.00000344  00000+0  00000+0 0  9997
2 39216   1.6601  83.8888 0001701 246.5341  53.1897  1.00272710 46041
WGS F6 (USA 244)        
1 39222U 13041A   26065.01225366  .00000083  00000+0  00000+0 0  9990
2 39222   0.0210 138.9278 0001444 191.6821  62.3336  1.00272678 45029
ES'HAIL 1               
1 39233U 13044A   26065.15872159  .00000138  00000+0  00000+0 0  9999
2 39233   0.0561 359.4644 0003063 350.4960 256.5414  1.00272122 45595
GSAT-7                  
1 39234U 13044B   26065.16834163 -.00000082  00000+0  00000+0 0  9993
2 39234   0.0264 105.0888 0006434 189.0988   4.2922  1.00271708 44222
AMOS-4                  
1 39237U 13045A   26064.45346745  .00000000  00000+0  00000+0 0  9991
2 39237   0.0173 147.1707 0003318 202.3374  41.9226  1.00272421 45912
SL-23 R/B               
1 39238U 13045B   26065.31379615 -.00000023  00000+0  00000+0 0  9996
2 39238  26.2970  99.5074 6368593  75.1771 343.6556  2.10657957 96295
AEHF-3 (USA 246)        
1 39256U 13050A   26065.20023509  .00000026  00000+0  00000+0 0  9990
2 39256   5.0401  68.1333 0091672 187.9620 215.6566  1.00273228 44621
ASTRA 2E                
1 39285U 13056A   26065.15932825  .00000145  00000+0  00000+0 0  9994
2 39285   0.0723  33.8083 0002183 305.9816 269.9212  1.00272924 45380
TITAN 3C TRANSTAGE DEB  
1 39296U 68081AG  26065.28482214 -.00000357  00000+0  00000+0 0  9996
2 39296   1.4541  25.3184 0173395 310.9012 233.6874  1.00581968 50650
TITAN 3C TRANSTAGE DEB  
1 39297U 68081AH  26064.41216340 -.00000094  00000+0  00000+0 0  9994
2 39297   1.4930  18.3240 0229899 309.3574  49.2191  1.00427238 15433
TITAN 3C TRANSTAGE DEB  
1 39298U 68081AJ  26064.56102126 -.00000115  00000+0  00000+0 0  9991
2 39298   1.5330  19.4029 0153172 324.1451 271.3521  1.00121698 65245
TITAN 3C TRANSTAGE DEB  
1 39299U 68081AK  26065.01502992 -.00000051  00000+0  00000+0 0  9997
2 39299   1.4267  19.5524 0162258  23.3958 186.8929  1.00433291 66136
CZ-3B DEB               
1 39333U 10042E   26065.08626396 -.00000042  00000+0  37882-2 0  9993
2 39333  24.3987  47.0328 7442687  86.0739 358.2957  1.91228972 88142
CZ-3B DEB               
1 39334U 10042F   26063.55832995 -.00000034  00000+0  00000+0 0  9998
2 39334  26.1100 265.4133 7356627   2.8499   2.9479  1.86386179 95875
CZ-3B DEB               
1 39335U 10042G   26058.25392083  .00000707  00000+0  10318-1 0  9990
2 39335  27.7830  65.7488 7360289 275.3611  72.2182  1.97574851 81884
CZ-3B DEB               
1 39337U 10042J   26053.67562704  .00000295  00000+0  76506-2 0  9996
2 39337  24.2566 146.8813 7504896 240.5660  26.5645  1.84179093 80597
CZ-3C DEB               
1 39338U 10057C   26062.22105312  .00000257  00000+0  29394-2 0  9993
2 39338  20.2060  45.3050 7190830 271.3024  15.0754  2.25952159102007
