[{"OBJECT_NAME":"INSAT-3D","OBJECT_ID":"2013-038B","EPOCH":"2026-03-06T06:00:35.883648","MEAN_MOTION":1.0027271,"ECCENTRICITY":0.00017018,"INCLINATION":1.6601,"RA_OF_ASC_NODE":83.8888,"ARG_OF_PERICENTER":246.5341,"MEAN_ANOMALY":53.1897,"EPHEMERIS_TYPE":0,"CLASSIFICATION_TYPE":"U","NORAD_CAT_ID":39216,"ELEMENT_SET_NO":999,"REV_AT_EPOCH":4604,"BSTAR":0,"MEAN_MOTION_DOT":-3.44e-6,"MEAN_MOTION_DDOT":0},{"OBJECT_NAME":"WGS F6 (USA 244)","OBJECT_ID":"2013-041A","EPOCH":"2026-03-06T00:17:38.716224","MEAN_MOTION":1.00272678,"ECCENTRICITY":0.00014442,"INCLINATION":0.021,"RA_OF_ASC_NODE":138.9278,"ARG_OF_PERICENTER":191.6821,"MEAN_ANOMALY":62.3336,"EPHEMERIS_TYPE":0,"CLASSIFICATION_TYPE":"U","NORAD_CAT_ID":39222,"ELEMENT_SET_NO":999,"REV_AT_EPOCH":4502,"BSTAR":0,"MEAN_MOTION_DOT":8.3e-7,"MEAN_MOTION_DDOT":0},{"OBJECT_NAME":"ES'HAIL 1","OBJECT_ID":"2013-044A","EPOCH":"2026-03-06T03:48:33.545376","MEAN_MOTION":1.00272122,"ECCENTRICITY":0.00030636,"INCLINATION":0.0561,"RA_OF_ASC_NODE":359.4644,"ARG_OF_PERICENTER":350.496,"MEAN_ANOMALY":256.5414,"EPHEMERIS_TYPE":0,"CLASSIFICATION_TYPE":"U","NORAD_CAT_ID":39233,"ELEMENT_SET_NO":999,"REV_AT_EPOCH":4559,"BSTAR":0,"MEAN_MOTION_DOT":1.38e-6,"MEAN_MOTION_DDOT":0},{"OBJECT_NAME":"GSAT-7","OBJECT_ID":"2013-044B","EPOCH":"2026-03-06T04:02:24.716832","MEAN_MOTION":1.00271708,"ECCENTRICITY":0.00064347,"INCLINATION":0.0264,"RA_OF_ASC_NODE":105.0888,"ARG_OF_PERICENTER":189.0988,"MEAN_ANOMALY":4.2922,"EPHEMERIS_TYPE":0,"CLASSIFICATION_TYPE":"U","NORAD_CAT_ID":39234,"ELEMENT_SET_NO":999,"REV_AT_EPOCH":4422,"BSTAR":0,"MEAN_MOTION_DOT":-8.2e-7,"MEAN_MOTION_DDOT":0},{"OBJECT_NAME":"AMOS-4","OBJECT_ID":"2013-045A","EPOCH":"2026-03-05T10:52:59.587680","MEAN_MOTION":1.00272421,"ECCENTRICITY":0.0003318,"INCLINATION":0.0173,"RA_OF_ASC_NODE":147.1707,"ARG_OF_PERICENTER":202.3374,"MEAN_ANOMALY":41.9226,"EPHEMERIS_TYPE":0,"CLASSIFICATION_TYPE":"U","NORAD_CAT_ID":39237,"ELEMENT_SET_NO":999,"REV_AT_EPOCH":4591,"BSTAR":0,"MEAN_MOTION_DOT":0,"MEAN_MOTION_DDOT":0},{"OBJECT_NAME":"SL-23 R/B","OBJECT_ID":"2013-045B","EPOCH":"2026-03-06T07:31:51.987360","MEAN_MOTION":2.10657957,"ECCENTRICITY":0.63685933,"INCLINATION":26.297,"RA_OF_ASC_NODE":99.5074,"ARG_OF_PERICENTER":75.1771,"MEAN_ANOMALY":343.6556,"EPHEMERIS_TYPE":0,"CLASSIFICATION_TYPE":"U","NORAD_CAT_ID":39238,"ELEMENT_SET_NO":999,"REV_AT_EPOCH":9629,"BSTAR":0,"MEAN_MOTION_DOT":-2.3e-7,"MEAN_MOTION_DDOT":0},{"OBJECT_NAME":"AEHF-3 (USA 246)","OBJECT_ID":"2013-050A","EPOCH":"2026-03-06T04:48:20.311776","MEAN_MOTION":1.00273228,"ECCENTRICITY":0.00916727,"INCLINATION":5.0401,"RA_OF_ASC_NODE":68.1333,"ARG_OF_PERICENTER":187.962,"MEAN_ANOMALY":215.6566,"EPHEMERIS_TYPE":0,"CLASSIFICATION_TYPE":"U","NORAD_CAT_ID":39256,"ELEMENT_SET_NO":999,"REV_AT_EPOCH":4462,"BSTAR":0,"MEAN_MOTION_DOT":2.6e-7,"MEAN_MOTION_DDOT":0},{"OBJECT_NAME":"ASTRA 2E","OBJECT_ID":"2013-056A","EPOCH":"2026-03-06T03:49:25.960800","MEAN_MOTION":1.00272924,"ECCENTRICITY":0.00021834,"INCLINATION":0.0723,"RA_OF_ASC_NODE":33.8083,"ARG_OF_PERICENTER":305.9816,"MEAN_ANOMALY":269.9212,"EPHEMERIS_TYPE":0,"CLASSIFICATION_TYPE":"U","NORAD_CAT_ID":39285,"ELEMENT_SET_NO":999,"REV_AT_EPOCH":4538,"BSTAR":0,"MEAN_MOTION_DOT":1.45e-6,"MEAN_MOTION_DDOT":0},{"OBJECT_NAME":"TITAN 3C TRANSTAGE DEB","OBJECT_ID":"1968-081AG","EPOCH":"2026-03-06T06:50:08.632896","MEAN_MOTION":1.00581968,"ECCENTRICITY":0.01733955,"INCLINATION":1.4541,"RA_OF_ASC_NODE":25.3184,"ARG_OF_PERICENTER":310.9012,"MEAN_ANOMALY":233.6874,"EPHEMERIS_TYPE":0,"CLASSIFICATION_TYPE":"U","NORAD_CAT_ID":39296,"ELEMENT_SET_NO":999,"REV_AT_EPOCH":5065,"BSTAR":0,"MEAN_MOTION_DOT":-3.57e-6,"MEAN_MOTION_DDOT":0},{"OBJECT_NAME":"TITAN 3C TRANSTAGE DEB","OBJECT_ID":"1968-081AH","EPOCH":"2026-03-05T09:53:30.917760","MEAN_MOTION":1.00427238,"ECCENTRICITY":0.02298994,"INCLINATION":1.493,"RA_OF_ASC_NODE":18.324,"ARG_OF_PERICENTER":309.3574,"MEAN_ANOMALY":49.2191,"EPHEMERIS_TYPE":0,"CLASSIFICATION_TYPE":"U","NORAD_CAT_ID":39297,"ELEMENT_SET_NO":999,"REV_AT_EPOCH":1543,"BSTAR":0,"MEAN_MOTION_DOT":-9.4e-7,"MEAN_MOTION_DDOT":0},{"OBJECT_NAME":"TITAN 3C TRANSTAGE DEB","OBJECT_ID":"1968-081AJ","EPOCH":"2026-03-05T13:27:52.236864","MEAN_MOTION":1.00121698,"ECCENTRICITY":0.0153172,"INCLINATION":1.533,"RA_OF_ASC_NODE":19.4029,"ARG_OF_PERICENTER":324.1451,"MEAN_ANOMALY":271.3521,"EPHEMERIS_TYPE":0,"CLASSIFICATION_TYPE":"U","NORAD_CAT_ID":39298,"ELEMENT_SET_NO":999,"REV_AT_EPOCH":6524,"BSTAR":0,"MEAN_MOTION_DOT":-1.15e-6,"MEAN_MOTION_DDOT":0},{"OBJECT_NAME":"TITAN 3C TRANSTAGE DEB","OBJECT_ID":"1968-081AK","EPOCH":"2026-03-06T00:21:38.585088","MEAN_MOTION":1.00433291,"ECCENTRICITY":0.01622586,"INCLINATION":1.4267,"RA_OF_ASC_NODE":19.5524,"ARG_OF_PERICENTER":23.3958,"MEAN_ANOMALY":186.8929,"EPHEMERIS_TYPE":0,"CLASSIFICATION_TYPE":"U","NORAD_CAT_ID":39299,"ELEMENT_SET_NO":999,"REV_AT_EPOCH":6613,"BSTAR":0,"MEAN_MOTION_DOT":-5.1e-7,"MEAN_MOTION_DDOT":0},{"OBJECT_NAME":"CZ-3B DEB","OBJECT_ID":"2010-042E","EPOCH":"2026-03-06T02:04:13.206144","MEAN_MOTION":1.91228972,"ECCENTRICITY":0.74426877,"INCLINATION":24.3987,"RA_OF_ASC_NODE":47.0328,"ARG_OF_PERICENTER":86.0739,"MEAN_ANOMALY":358.2957,"EPHEMERIS_TYPE":0,"CLASSIFICATION_TYPE":"U","NORAD_CAT_ID":39333,"ELEMENT_SET_NO":999,"REV_AT_EPOCH":8814,"BSTAR":0.0037881974,"MEAN_MOTION_DOT":-4.2e-7,"MEAN_MOTION_DDOT":0},{"OBJECT_NAME":"CZ-3B DEB","OBJECT_ID":"2010-042F","EPOCH":"2026-03-04T13:23:59.707680","MEAN_MOTION":1.86386179,"ECCENTRICITY":0.7356627,"INCLINATION":26.11,"RA_OF_ASC_NODE":265.4133,"ARG_OF_PERICENTER":2.8499,"MEAN_ANOMALY":2.9479,"EPHEMERIS_TYPE":0,"CLASSIFICATION_TYPE":"U","NORAD_CAT_ID":39334,"ELEMENT_SET_NO":999,"REV_AT_EPOCH":9587,"BSTAR":0,"MEAN_MOTION_DOT":-3.4e-7,"MEAN_MOTION_DDOT":0},{"OBJECT_NAME":"CZ-3B DEB","OBJECT_ID":"2010-042G","EPOCH":"2026-02-27T06:05:38.759712","MEAN_MOTION":1.97574851,"ECCENTRICITY":0.73602895,"INCLINATION":27.783,"RA_OF_ASC_NODE":65.7488,"ARG_OF_PERICENTER":275.3611,"MEAN_ANOMALY":72.2182,"EPHEMERIS_TYPE":0,"CLASSIFICATION_TYPE":"U","NORAD_CAT_ID":39335,"ELEMENT_SET_NO":999,"REV_AT_EPOCH":8188,"BSTAR":0.010318089,"MEAN_MOTION_DOT":7.07e-6,"MEAN_MOTION_DDOT":0},{"OBJECT_NAME":"CZ-3B DEB","OBJECT_ID":"2010-042J","EPOCH":"2026-02-22T16:12:54.176256","MEAN_MOTION":1.84179093,"ECCENTRICITY":0.7504896,"INCLINATION":24.2566,"RA_OF_ASC_NODE":146.8813,"ARG_OF_PERICENTER":240.566,"MEAN_ANOMALY":26.5645,"EPHEMERIS_TYPE":0,"CLASSIFICATION_TYPE":"U","NORAD_CAT_ID":39337,"ELEMENT_SET_NO":999,"REV_AT_EPOCH":8059,"BSTAR":0.0076506,"MEAN_MOTION_DOT":2.95e-6,"MEAN_MOTION_DDOT":0},{"OBJECT_NAME":"CZ-3C DEB","OBJECT_ID":"2010-057C","EPOCH":"2026-03-03T05:18:18.989568","MEAN_MOTION":2.25952159,"ECCENTRICITY":0.71908304,"INCLINATION":20.206,"RA_OF_ASC_NODE":45.305,"ARG_OF_PERICENTER":271.3024,"MEAN_ANOMALY":15.0754,"EPHEMERIS_TYPE":0,"CLASSIFICATION_TYPE":"U","NORAD_CAT_ID":39338,"ELEMENT_SET_NO":999,"REV_AT_EPOCH":10200,"BSTAR":0.0029393941,"MEAN_MOTION_DOT":2.57e-6,"MEAN_MOTION_DDOT":0}]
